INTELSAT 15 (IS-15)     
1 36106U 09067A   26115.87664272 -.00000199  00000+0  00000+0 0  9993
2 36106   0.0290  92.7672 0002233 301.0145 220.8502  1.00271876 40708
WGS F3 (USA 211)        
1 36108U 09068A   26115.68394648  .00000051  00000+0  00000+0 0  9998
2 36108   0.3923  85.3929 0000046 282.8747 321.6546  1.00271073 46065
DIRECTV 12              
1 36131U 09075A   26115.60004720 -.00000117  00000+0  00000+0 0  9997
2 36131   0.0284  90.2119 0000180 294.2966 302.3934  1.00271849 46027
BEIDOU-2 G1             
1 36287U 10001A   26115.81176955 -.00000291  00000+0  00000+0 0  9996
2 36287   4.1731  60.5479 0003643 294.7509 291.2263  1.00269351 59643
SDO                     
1 36395U 10005A   26115.41578257 -.00000060  00000+0  00000+0 0  9991
2 36395  34.5445  87.1361 0001120  34.5839 139.6162  1.00272610 59534
INTELSAT 16 (IS-16)     
1 36397U 10006A   26115.86780985 -.00000258  00000+0  00000+0 0  9995
2 36397   0.0073 128.9114 0002054 289.3660  31.8187  1.00271650 59128
EWS-G2 (GOES 15)        
1 36411U 10008A   26115.79351898  .00000010  00000+0  00000+0 0  9998
2 36411   1.1398  83.8010 0003880  23.6059  95.3210  1.00272333 59110
ECHOSTAR 14             
1 36499U 10010A   26115.61989220 -.00000013  00000+0  00000+0 0  9998
2 36499   0.0189 248.3512 0001688 160.6146 268.9289  1.00270500 46024
SES-1                   
1 36516U 10016A   26115.41862354 -.00000128  00000+0  00000+0 0  9997
2 36516   0.0263 287.7755 0002603 107.3666 227.9903  1.00270798 58509
ASTRA 3B                
1 36581U 10021A   26115.78563229  .00000124  00000+0  00000+0 0  9999
2 36581   1.3345  84.1514 0003902 319.1226 116.8793  1.00268703 58344
COMSATBW-2              
1 36582U 10021B   26115.83933421  .00000074  00000+0  00000+0 0  9995
2 36582   0.0150 244.0736 0002611 159.0127 126.1060  1.00268516 58438
BEIDOU-2 G3             
1 36590U 10024A   26115.86805264 -.00000145  00000+0  00000+0 0  9993
2 36590   4.3942  61.7188 0008518 336.8080 207.4908  1.00269979 58240
